[{"OBJECT_NAME":"ONEWEB-0058","OBJECT_ID":"2020-008AG","EPOCH":"2025-09-04T02:22:46.215264","MEAN_MOTION":13.10372696,"ECCENTRICITY":0.00017007,"INCLINATION":87.8749,"RA_OF_ASC_NODE":93.3432,"ARG_OF_PERICENTER":80.128,"MEAN_ANOMALY":280.004,"EPHEMERIS_TYPE":0,"CLASSIFICATION_TYPE":"U","NORAD_CAT_ID":45161,"ELEMENT_SET_NO":999,"REV_AT_EPOCH":27095,"BSTAR":0.00033962425,"MEAN_MOTION_DOT":1.31e-6,"MEAN_MOTION_DDOT":0},{"OBJECT_NAME":"ONEWEB-0059","OBJECT_ID":"2020-008AH","EPOCH":"2025-09-04T02:17:46.679424","MEAN_MOTION":13.10374956,"ECCENTRICITY":0.00015709,"INCLINATION":87.875,"RA_OF_ASC_NODE":93.3434,"ARG_OF_PERICENTER":81.0027,"MEAN_ANOMALY":279.1278,"EPHEMERIS_TYPE":0,"CLASSIFICATION_TYPE":"U","NORAD_CAT_ID":45162,"ELEMENT_SET_NO":999,"REV_AT_EPOCH":27085,"BSTAR":0.0018399271,"MEAN_MOTION_DOT":6.55e-6,"MEAN_MOTION_DDOT":0},{"OBJECT_NAME":"ONEWEB-0062","OBJECT_ID":"2020-008AJ","EPOCH":"2025-09-04T02:54:48.572064","MEAN_MOTION":13.10369414,"ECCENTRICITY":0.00013696,"INCLINATION":87.8739,"RA_OF_ASC_NODE":93.3163,"ARG_OF_PERICENTER":91.6416,"MEAN_ANOMALY":268.4868,"EPHEMERIS_TYPE":0,"CLASSIFICATION_TYPE":"U","NORAD_CAT_ID":45163,"ELEMENT_SET_NO":999,"REV_AT_EPOCH":27072,"BSTAR":0.00024973239,"MEAN_MOTION_DOT":1.0e-6,"MEAN_MOTION_DDOT":0},{"OBJECT_NAME":"ONEWEB-0065","OBJECT_ID":"2020-008AK","EPOCH":"2025-09-04T02:26:08.269440","MEAN_MOTION":13.10372902,"ECCENTRICITY":0.00020388,"INCLINATION":87.8746,"RA_OF_ASC_NODE":93.3457,"ARG_OF_PERICENTER":87.6729,"MEAN_ANOMALY":272.4632,"EPHEMERIS_TYPE":0,"CLASSIFICATION_TYPE":"U","NORAD_CAT_ID":45164,"ELEMENT_SET_NO":999,"REV_AT_EPOCH":27041,"BSTAR":0.00209509,"MEAN_MOTION_DOT":7.44e-6,"MEAN_MOTION_DDOT":0},{"OBJECT_NAME":"ONEWEB-0066","OBJECT_ID":"2020-020A","EPOCH":"2025-09-04T06:18:16.292448","MEAN_MOTION":13.11417612,"ECCENTRICITY":0.00018252,"INCLINATION":87.8782,"RA_OF_ASC_NODE":78.0295,"ARG_OF_PERICENTER":79.2856,"MEAN_ANOMALY":280.8478,"EPHEMERIS_TYPE":0,"CLASSIFICATION_TYPE":"U","NORAD_CAT_ID":45424,"ELEMENT_SET_NO":999,"REV_AT_EPOCH":26520,"BSTAR":-0.00088842321,"MEAN_MOTION_DOT":-3.02e-6,"MEAN_MOTION_DDOT":0},{"OBJECT_NAME":"ONEWEB-0067","OBJECT_ID":"2020-020B","EPOCH":"2025-09-04T05:22:18.726240","MEAN_MOTION":13.11408707,"ECCENTRICITY":0.00018253,"INCLINATION":87.8764,"RA_OF_ASC_NODE":77.9445,"ARG_OF_PERICENTER":84.3035,"MEAN_ANOMALY":275.8301,"EPHEMERIS_TYPE":0,"CLASSIFICATION_TYPE":"U","NORAD_CAT_ID":45425,"ELEMENT_SET_NO":999,"REV_AT_EPOCH":26525,"BSTAR":0.0012705088,"MEAN_MOTION_DOT":4.63e-6,"MEAN_MOTION_DDOT":0},{"OBJECT_NAME":"ONEWEB-0080","OBJECT_ID":"2020-020C","EPOCH":"2025-09-04T05:35:32.889984","MEAN_MOTION":13.11416359,"ECCENTRICITY":0.00014063,"INCLINATION":87.8779,"RA_OF_ASC_NODE":78.0368,"ARG_OF_PERICENTER":78.8419,"MEAN_ANOMALY":281.2867,"EPHEMERIS_TYPE":0,"CLASSIFICATION_TYPE":"U","NORAD_CAT_ID":45426,"ELEMENT_SET_NO":999,"REV_AT_EPOCH":26522,"BSTAR":9.691199e-5,"MEAN_MOTION_DOT":4.7e-7,"MEAN_MOTION_DDOT":0},{"OBJECT_NAME":"ONEWEB-0090","OBJECT_ID":"2020-020D","EPOCH":"2025-09-04T06:03:37.490400","MEAN_MOTION":13.11417825,"ECCENTRICITY":0.00015885,"INCLINATION":87.8781,"RA_OF_ASC_NODE":78.0331,"ARG_OF_PERICENTER":87.1139,"MEAN_ANOMALY":273.017,"EPHEMERIS_TYPE":0,"CLASSIFICATION_TYPE":"U","NORAD_CAT_ID":45427,"ELEMENT_SET_NO":999,"REV_AT_EPOCH":26519,"BSTAR":-0.0017781944,"MEAN_MOTION_DOT":-6.17e-6,"MEAN_MOTION_DDOT":0},{"OBJECT_NAME":"ONEWEB-0061","OBJECT_ID":"2020-020E","EPOCH":"2025-09-04T01:20:12.518880","MEAN_MOTION":13.11414247,"ECCENTRICITY":0.00016669,"INCLINATION":87.8778,"RA_OF_ASC_NODE":78.0543,"ARG_OF_PERICENTER":85.4442,"MEAN_ANOMALY":274.6876,"EPHEMERIS_TYPE":0,"CLASSIFICATION_TYPE":"U","NORAD_CAT_ID":45428,"ELEMENT_SET_NO":999,"REV_AT_EPOCH":26512,"BSTAR":0.0014770661,"MEAN_MOTION_DOT":5.36e-6,"MEAN_MOTION_DDOT":0},{"OBJECT_NAME":"ONEWEB-0081","OBJECT_ID":"2020-020F","EPOCH":"2025-09-04T06:23:09.801888","MEAN_MOTION":13.11418372,"ECCENTRICITY":0.00018494,"INCLINATION":87.8777,"RA_OF_ASC_NODE":78.031,"ARG_OF_PERICENTER":80.7658,"MEAN_ANOMALY":279.3679,"EPHEMERIS_TYPE":0,"CLASSIFICATION_TYPE":"U","NORAD_CAT_ID":45429,"ELEMENT_SET_NO":999,"REV_AT_EPOCH":26526,"BSTAR":-0.00081583817,"MEAN_MOTION_DOT":-2.76e-6,"MEAN_MOTION_DDOT":0},{"OBJECT_NAME":"ONEWEB-0069","OBJECT_ID":"2020-020G","EPOCH":"2025-09-04T06:07:16.783968","MEAN_MOTION":13.11418613,"ECCENTRICITY":0.00017885,"INCLINATION":87.8779,"RA_OF_ASC_NODE":78.0279,"ARG_OF_PERICENTER":85.956,"MEAN_ANOMALY":274.1772,"EPHEMERIS_TYPE":0,"CLASSIFICATION_TYPE":"U","NORAD_CAT_ID":45430,"ELEMENT_SET_NO":999,"REV_AT_EPOCH":26519,"BSTAR":-0.0014344337,"MEAN_MOTION_DOT":-4.96e-6,"MEAN_MOTION_DDOT":0},{"OBJECT_NAME":"ONEWEB-0031","OBJECT_ID":"2020-020H","EPOCH":"2025-09-04T05:27:00.595872","MEAN_MOTION":13.11413145,"ECCENTRICITY":0.00013421,"INCLINATION":87.877,"RA_OF_ASC_NODE":78.0622,"ARG_OF_PERICENTER":99.9551,"MEAN_ANOMALY":260.1729,"EPHEMERIS_TYPE":0,"CLASSIFICATION_TYPE":"U","NORAD_CAT_ID":45431,"ELEMENT_SET_NO":999,"REV_AT_EPOCH":26517,"BSTAR":0.0022948792,"MEAN_MOTION_DOT":8.26e-6,"MEAN_MOTION_DDOT":0},{"OBJECT_NAME":"ONEWEB-0027","OBJECT_ID":"2020-020J","EPOCH":"2025-09-04T06:06:13.546944","MEAN_MOTION":13.17649142,"ECCENTRICITY":0.00015894,"INCLINATION":87.9038,"RA_OF_ASC_NODE":62.7208,"ARG_OF_PERICENTER":103.8617,"MEAN_ANOMALY":256.2692,"EPHEMERIS_TYPE":0,"CLASSIFICATION_TYPE":"U","NORAD_CAT_ID":45432,"ELEMENT_SET_NO":999,"REV_AT_EPOCH":26870,"BSTAR":-7.9498109e-5,"MEAN_MOTION_DOT":-1.8e-7,"MEAN_MOTION_DDOT":0},{"OBJECT_NAME":"ONEWEB-0064","OBJECT_ID":"2020-020K","EPOCH":"2025-09-04T05:24:34.274016","MEAN_MOTION":13.11415762,"ECCENTRICITY":0.00016061,"INCLINATION":87.8771,"RA_OF_ASC_NODE":78.0538,"ARG_OF_PERICENTER":92.086,"MEAN_ANOMALY":268.0452,"EPHEMERIS_TYPE":0,"CLASSIFICATION_TYPE":"U","NORAD_CAT_ID":45433,"ELEMENT_SET_NO":999,"REV_AT_EPOCH":26520,"BSTAR":0.0010455517,"MEAN_MOTION_DOT":3.83e-6,"MEAN_MOTION_DDOT":0},{"OBJECT_NAME":"ONEWEB-0018","OBJECT_ID":"2020-020L","EPOCH":"2025-09-04T06:10:56.990784","MEAN_MOTION":13.11417751,"ECCENTRICITY":0.0001674,"INCLINATION":87.8777,"RA_OF_ASC_NODE":78.0315,"ARG_OF_PERICENTER":85.7258,"MEAN_ANOMALY":274.4062,"EPHEMERIS_TYPE":0,"CLASSIFICATION_TYPE":"U","NORAD_CAT_ID":45434,"ELEMENT_SET_NO":999,"REV_AT_EPOCH":26515,"BSTAR":-0.0013049968,"MEAN_MOTION_DOT":-4.5e-6,"MEAN_MOTION_DDOT":0},{"OBJECT_NAME":"ONEWEB-0083","OBJECT_ID":"2020-020M","EPOCH":"2025-09-04T05:57:30.816576","MEAN_MOTION":13.11415368,"ECCENTRICITY":0.0001894,"INCLINATION":87.8779,"RA_OF_ASC_NODE":78.0221,"ARG_OF_PERICENTER":85.5258,"MEAN_ANOMALY":274.6086,"EPHEMERIS_TYPE":0,"CLASSIFICATION_TYPE":"U","NORAD_CAT_ID":45435,"ELEMENT_SET_NO":999,"REV_AT_EPOCH":26519,"BSTAR":-0.0012927321,"MEAN_MOTION_DOT":-4.45e-6,"MEAN_MOTION_DDOT":0},{"OBJECT_NAME":"ONEWEB-0095","OBJECT_ID":"2020-020N","EPOCH":"2025-09-04T05:44:18.507840","MEAN_MOTION":13.11415941,"ECCENTRICITY":0.00021731,"INCLINATION":87.8768,"RA_OF_ASC_NODE":78.0439,"ARG_OF_PERICENTER":106.1416,"MEAN_ANOMALY":253.9951,"EPHEMERIS_TYPE":0,"CLASSIFICATION_TYPE":"U","NORAD_CAT_ID":45436,"ELEMENT_SET_NO":999,"REV_AT_EPOCH":26519,"BSTAR":-0.00062118699,"MEAN_MOTION_DOT":-2.07e-6,"MEAN_MOTION_DDOT":0}]
