ONEWEB-0058             
1 45161U 20008AG  25247.09914601  .00000131  00000+0  33962-3 0  9997
2 45161  87.8749  93.3432 0001700  80.1280 280.0040 13.10372696270958
ONEWEB-0059             
1 45162U 20008AH  25247.09567916  .00000655  00000+0  18399-2 0  9998
2 45162  87.8750  93.3434 0001570  81.0027 279.1278 13.10374956270859
ONEWEB-0062             
1 45163U 20008AJ  25247.12139551  .00000100  00000+0  24973-3 0  9994
2 45163  87.8739  93.3163 0001369  91.6416 268.4868 13.10369414270726
ONEWEB-0065             
1 45164U 20008AK  25247.10148460  .00000744  00000+0  20951-2 0  9997
2 45164  87.8746  93.3457 0002038  87.6729 272.4632 13.10372902270413
ONEWEB-0066             
1 45424U 20020A   25247.26268857 -.00000302  00000+0 -88842-3 0  9996
2 45424  87.8782  78.0295 0001825  79.2856 280.8478 13.11417612265204
ONEWEB-0067             
1 45425U 20020B   25247.22382785  .00000463  00000+0  12705-2 0  9990
2 45425  87.8764  77.9445 0001825  84.3035 275.8301 13.11408707265255
ONEWEB-0080             
1 45426U 20020C   25247.23301956  .00000047  00000+0  96912-4 0  9995
2 45426  87.8779  78.0368 0001406  78.8419 281.2867 13.11416359265224
ONEWEB-0090             
1 45427U 20020D   25247.25251725 -.00000617  00000+0 -17782-2 0  9997
2 45427  87.8781  78.0331 0001588  87.1139 273.0170 13.11417825265192
ONEWEB-0061             
1 45428U 20020E   25247.05570045  .00000536  00000+0  14771-2 0  9998
2 45428  87.8778  78.0543 0001666  85.4442 274.6876 13.11414247265127
ONEWEB-0081             
1 45429U 20020F   25247.26608567 -.00000276  00000+0 -81584-3 0  9993
2 45429  87.8777  78.0310 0001849  80.7658 279.3679 13.11418372265260
ONEWEB-0069             
1 45430U 20020G   25247.25505537 -.00000496  00000+0 -14344-2 0  9990
2 45430  87.8779  78.0279 0001788  85.9560 274.1772 13.11418613265196
ONEWEB-0031             
1 45431U 20020H   25247.22709023  .00000826  00000+0  22949-2 0  9999
2 45431  87.8770  78.0622 0001342  99.9551 260.1729 13.11413145265171
ONEWEB-0027             
1 45432U 20020J   25247.25432346 -.00000018  00000+0 -79498-4 0  9992
2 45432  87.9038  62.7208 0001589 103.8617 256.2692 13.17649142268702
ONEWEB-0064             
1 45433U 20020K   25247.22539669  .00000383  00000+0  10456-2 0  9996
2 45433  87.8771  78.0538 0001606  92.0860 268.0452 13.11415762265201
ONEWEB-0018             
1 45434U 20020L   25247.25760406 -.00000450  00000+0 -13050-2 0  9995
2 45434  87.8777  78.0315 0001674  85.7258 274.4062 13.11417751265158
ONEWEB-0083             
1 45435U 20020M   25247.24827334 -.00000445  00000+0 -12927-2 0  9995
2 45435  87.8779  78.0221 0001894  85.5258 274.6086 13.11415368265193
ONEWEB-0095             
1 45436U 20020N   25247.23910310 -.00000207  00000+0 -62119-3 0  9997
2 45436  87.8768  78.0439 0002173 106.1416 253.9951 13.11415941265198
